LEMUR-2-ROUNDTRIPPER    
1 62711U 25009DG  26199.76156274  .00003847  00000+0  28090-3 0  9991
2 62711  97.7243 282.4037 0004484  57.6455 302.5204 15.04262462 82377
LEMUR-2-MYNAMEISJEFF    
1 62712U 25009DH  26199.95963082  .00004124  00000+0  30087-3 0  9994
2 62712  97.7291 283.0021 0004341  89.9974 270.1749 15.04255698 82408
LEMUR-2-LEIA-PHILIP     
1 63246U 25052AN  26199.94562709  .00000032  00000+0  77016-5 0  9994
2 63246  97.6795  91.3575 0005036 111.6647 248.5112 14.97392683 73427
LEMUR-2-LIA-MARTIN      
1 63248U 25052AQ  26199.93856709  .00001284  00000+0  11356-3 0  9994
2 63248  97.6855  91.8757 0005038  80.7004 279.4788 14.98042685 73436
LEMUR-2-DELOITTE-1      
1 63259U 25052BB  26199.91963799  .00002371  00000+0  20677-3 0  9996
2 63259  97.6885  92.1869 0002542  59.6810 300.4664 14.97800195 73442
LEMUR-2-EMERSONROSE     
1 63261U 25052BD  26199.93007124  .00002259  00000+0  18978-3 0  9998
2 63261  97.6884  92.8192 0002490  51.8610 308.2838 14.99308962 73495
LEMUR-2-MARACHE-FRAN    
1 63262U 25052BE  26199.68346649  .00001577  00000+0  13045-3 0  9991
2 63262  97.6820  92.9461 0005607 238.5263 121.5413 15.00327527 73482
LEMUR-2-THEFALCONER     
1 63264U 25052BG  26199.68338383  .00001030  00000+0  93164-4 0  9994
2 63264  97.6818  91.5411 0000539 237.8231 122.2939 14.97570780 73406
LEMUR-2-UNTITLED-SC     
1 63351U 25061A   26199.88793217  .00001770  00000+0  10174-3 0  9994
2 63351  97.5660 175.0260 0019552 150.7612 209.4718 15.13659594 72387
LEMUR-2-ESPERANZA       
1 63352U 25061B   26199.86300779  .00001715  00000+0  98409-4 0  9997
2 63352  97.5666 175.1024 0019168 150.1624 210.0705 15.13765530 72385
LEMUR-2-KREMPEL-BRO2    
1 63353U 25061C   26199.88094642  .00001858  00000+0  10498-3 0  9998
2 63353  97.5710 175.6939 0020287 143.0980 217.1652 15.14192896 72408
LEMUR-2-THERMORAPTOR    
1 63354U 25061D   26199.86130197  .00001852  00000+0  10447-3 0  9991
2 63354  97.5718 175.7562 0020023 142.1235 218.1410 15.14275787 72405
LEMUR-2-NEUROSPICY      
1 63355U 25061E   26199.89660350  .00001843  00000+0  10373-3 0  9992
2 63355  97.5646 175.3929 0017805 144.7929 215.4483 15.14394723 72414
LEMUR-2-TILLINFINITY    
1 63356U 25061F   26199.91964791  .00001954  00000+0  10787-3 0  9994
2 63356  97.5630 175.7286 0019294 133.7639 226.5194 15.14979592 72446
LEMUR-2-KREMPEL-BRO1    
1 63357U 25061G   26199.89717339  .00001867  00000+0  10378-3 0  9995
2 63357  97.5632 175.6133 0019966 135.2144 225.0704 15.14786023 72438
LEMUR-2-LANGER2SPACE    
1 63358U 25061H   26199.86397661  .00001870  00000+0  10494-3 0  9998
2 63358  97.5636 175.3817 0017704 143.2833 216.9615 15.14479414 72412
LEMUR-2-BALTO           
1 63395U 25052BH  26199.93447269  .00002192  00000+0  17925-3 0  9991
2 63395  97.6920  93.1873 0004996 311.6169  48.4626 15.00382047 73524
LEMUR-2-KRISH           
1 64561U 25135AK  26199.83801924  .00001984  00000+0  17998-3 0  9998
2 64561  97.7766 314.5051 0001117 102.6751 257.4595 14.96462313 58657
LEMUR-2-HUBBLE-4        
1 64565U 25135AP  26199.89261171  .00000424  00000+0  45430-4 0  9993
2 64565  97.7722 313.4327 0002958 153.4177 206.7195 14.93691291 58601
LEMUR-2-SEJONG-2        
1 64586U 25135BL  26199.85792700  .00002440  00000+0  21748-3 0  9994
2 64586  97.7709 314.6703 0004192 201.2616 158.8432 14.96929004 58680
LEMUR-2-HUBBLE-5        
1 64840U 25135BT  26199.90014355  .00000360  00000+0  38940-4 0  9998
2 64840  97.7742 314.1132 0004595 220.3089 139.7791 14.94218243 58640
LEMUR-2-KARENDARRELL    
1 64841U 25135BU  26199.86415129  .00003924  00000+0  31556-3 0  9992
2 64841  97.7722 316.0333 0012754  93.5152 266.7531 15.00529135 58769
LEMUR-2-LUCILLE-ROSE    
1 65403U 25135BV  26199.57089867  .00003070  00000+0  24788-3 0  9992
2 65403  97.7705 315.7752 0015273 178.9427 181.1832 15.00510880 53348
LEMUR-2-AFFIE-WAUWIE    
1 66295U 25248C   26199.57223625  .00012349  00000+0  44883-3 0  9996
2 66295  45.3903 304.7895 0009040 269.7591  90.2263 15.28344711 39394
OTTER SDM               
1 66678U 25276N   26199.91540081  .00003102  00000+0  14686-3 0  9993
2 66678  97.4197 272.8699 0004500 236.8031 123.2773 15.20080884 35231
LEMUR-2-STAS-GORBUK     
1 66686U 25276W   26199.74027426  .00002629  00000+0  12640-3 0  9997
2 66686  97.4231 272.7490 0003828 230.7972 129.2923 15.19678012 35200
LEMUR-2-TEODOR          
1 66768U 25276DG  26199.68936817  .00002814  00000+0  12869-3 0  9993
2 66768  97.4137 272.9752 0002182  85.2409 274.9076 15.21357820 35233
LEMUR-2-LAILA           
1 66776U 25276DQ  26199.72441348  .00002762  00000+0  12555-3 0  9991
2 66776  97.4160 273.1506 0002867  89.1323 271.0242 15.21584359 35249
LEMUR-2-CELIJO-SB-PK    
1 66781U 25276DW  26199.71973042  .00002886  00000+0  23474-3 0  9996
2 66781  97.5187 269.4564 0006765  55.8337 304.3528 15.00305865 27353
